CCSDS_OMM_VERS = 2.0
CREATION_DATE  = 
ORIGINATOR     = 

OBJECT_NAME    = UNKNOWN
OBJECT_ID      = 
CENTER_NAME    = EARTH
REF_FRAME      = TEME
TIME_SYSTEM    = UTC
MEAN_ELEMENT_THEORY = SGP/SGP4

EPOCH          = 2026-02-25T10:28:53.255136
MEAN_MOTION    = 14.40783972
ECCENTRICITY   = .001385
INCLINATION    = 74.0435
RA_OF_ASC_NODE = 84.6837
ARG_OF_PERICENTER = 292.1935
MEAN_ANOMALY   = 133.8839

EPHEMERIS_TYPE = 0
CLASSIFICATION_TYPE = U
NORAD_CAT_ID   = 85100
ELEMENT_SET_NO = 999
REV_AT_EPOCH   = 64410
BSTAR          = .10514E-3
MEAN_MOTION_DOT = .31E-5
MEAN_MOTION_DDOT = 0

CCSDS_OMM_VERS = 2.0
CREATION_DATE  = 
ORIGINATOR     = 

OBJECT_NAME    = UNKNOWN
OBJECT_ID      = 
CENTER_NAME    = EARTH
REF_FRAME      = TEME
TIME_SYSTEM    = UTC
MEAN_ELEMENT_THEORY = SGP/SGP4

EPOCH          = 2026-02-26T06:22:21.644256
MEAN_MOTION    = 13.73014065
ECCENTRICITY   = .001042
INCLINATION    = 100.0525
RA_OF_ASC_NODE = 166.8395
ARG_OF_PERICENTER = 178.8967
MEAN_ANOMALY   = 211.9837

EPHEMERIS_TYPE = 0
CLASSIFICATION_TYPE = U
NORAD_CAT_ID   = 85106
ELEMENT_SET_NO = 999
REV_AT_EPOCH   = 61343
BSTAR          = .70206E-3
MEAN_MOTION_DOT = .6E-5
MEAN_MOTION_DDOT = 0

CCSDS_OMM_VERS = 2.0
CREATION_DATE  = 
ORIGINATOR     = 

OBJECT_NAME    = UNKNOWN
OBJECT_ID      = 
CENTER_NAME    = EARTH
REF_FRAME      = TEME
TIME_SYSTEM    = UTC
MEAN_ELEMENT_THEORY = SGP/SGP4

EPOCH          = 2026-02-22T21:17:31.532064
MEAN_MOTION    = 14.82363651
ECCENTRICITY   = .0007818
INCLINATION    = 98.4005
RA_OF_ASC_NODE = 286.2981
ARG_OF_PERICENTER = 282.8932
MEAN_ANOMALY   = 77.1406

EPHEMERIS_TYPE = 0
CLASSIFICATION_TYPE = U
NORAD_CAT_ID   = 85151
ELEMENT_SET_NO = 999
REV_AT_EPOCH   = 49020
BSTAR          = .3326E-2
MEAN_MOTION_DOT = .26671E-3
MEAN_MOTION_DDOT = 0

CCSDS_OMM_VERS = 2.0
CREATION_DATE  = 
ORIGINATOR     = 

OBJECT_NAME    = UNKNOWN
OBJECT_ID      = 
CENTER_NAME    = EARTH
REF_FRAME      = TEME
TIME_SYSTEM    = UTC
MEAN_ELEMENT_THEORY = SGP/SGP4

EPOCH          = 2026-02-25T15:11:08.254752
MEAN_MOTION    = 13.71661560
ECCENTRICITY   = .0217584
INCLINATION    = 99.8603
RA_OF_ASC_NODE = 204.6839
ARG_OF_PERICENTER = 123.0867
MEAN_ANOMALY   = 302.0698

EPHEMERIS_TYPE = 0
CLASSIFICATION_TYPE = U
NORAD_CAT_ID   = 85210
ELEMENT_SET_NO = 999
REV_AT_EPOCH   = 61242
BSTAR          = .23255E-3
MEAN_MOTION_DOT = .203E-5
MEAN_MOTION_DDOT = 0

CCSDS_OMM_VERS = 2.0
CREATION_DATE  = 
ORIGINATOR     = 

OBJECT_NAME    = UNKNOWN
OBJECT_ID      = 
CENTER_NAME    = EARTH
REF_FRAME      = TEME
TIME_SYSTEM    = UTC
MEAN_ELEMENT_THEORY = SGP/SGP4

EPOCH          = 2026-02-26T01:01:26.131584
MEAN_MOTION    = 14.37569429
ECCENTRICITY   = .0205985
INCLINATION    = 98.0236
RA_OF_ASC_NODE = 151.5198
ARG_OF_PERICENTER = 260.5240
MEAN_ANOMALY   = 97.2614

EPHEMERIS_TYPE = 0
CLASSIFICATION_TYPE = U
NORAD_CAT_ID   = 85217
ELEMENT_SET_NO = 999
REV_AT_EPOCH   = 63867
BSTAR          = .55743E-3
MEAN_MOTION_DOT = .2087E-4
MEAN_MOTION_DDOT = 0

CCSDS_OMM_VERS = 2.0
CREATION_DATE  = 
ORIGINATOR     = 

OBJECT_NAME    = UNKNOWN
OBJECT_ID      = 
CENTER_NAME    = EARTH
REF_FRAME      = TEME
TIME_SYSTEM    = UTC
MEAN_ELEMENT_THEORY = SGP/SGP4

EPOCH          = 2026-02-23T08:31:05.057760
MEAN_MOTION    = 14.01835433
ECCENTRICITY   = .0516167
INCLINATION    = 65.5338
RA_OF_ASC_NODE = 24.2147
ARG_OF_PERICENTER = 354.4749
MEAN_ANOMALY   = 5.0755

EPHEMERIS_TYPE = 0
CLASSIFICATION_TYPE = U
NORAD_CAT_ID   = 85237
ELEMENT_SET_NO = 999
REV_AT_EPOCH   = 61852
BSTAR          = .26977E-2
MEAN_MOTION_DOT = .13478E-3
MEAN_MOTION_DDOT = 0

CCSDS_OMM_VERS = 2.0
CREATION_DATE  = 
ORIGINATOR     = 

OBJECT_NAME    = UNKNOWN
OBJECT_ID      = 
CENTER_NAME    = EARTH
REF_FRAME      = TEME
TIME_SYSTEM    = UTC
MEAN_ELEMENT_THEORY = SGP/SGP4

EPOCH          = 2026-02-26T14:20:28.218048
MEAN_MOTION    = 13.88358512
ECCENTRICITY   = .006344
INCLINATION    = 99.0675
RA_OF_ASC_NODE = 349.6321
ARG_OF_PERICENTER = 356.5025
MEAN_ANOMALY   = 179.1574

EPHEMERIS_TYPE = 0
CLASSIFICATION_TYPE = U
NORAD_CAT_ID   = 85238
ELEMENT_SET_NO = 999
REV_AT_EPOCH   = 62136
BSTAR          = .66009E-4
MEAN_MOTION_DOT = .37E-6
MEAN_MOTION_DDOT = 0

CCSDS_OMM_VERS = 2.0
CREATION_DATE  = 
ORIGINATOR     = 

OBJECT_NAME    = UNKNOWN
OBJECT_ID      = 
CENTER_NAME    = EARTH
REF_FRAME      = TEME
TIME_SYSTEM    = UTC
MEAN_ELEMENT_THEORY = SGP/SGP4

EPOCH          = 2026-02-25T22:22:49.697760
MEAN_MOTION    = 14.21733756
ECCENTRICITY   = .0223976
INCLINATION    = 97.9901
RA_OF_ASC_NODE = 58.3882
ARG_OF_PERICENTER = 82.2001
MEAN_ANOMALY   = 280.4542

EPHEMERIS_TYPE = 0
CLASSIFICATION_TYPE = U
NORAD_CAT_ID   = 85246
ELEMENT_SET_NO = 999
REV_AT_EPOCH   = 63375
BSTAR          = .49205E-3
MEAN_MOTION_DOT = .1357E-4
MEAN_MOTION_DDOT = 0

CCSDS_OMM_VERS = 2.0
CREATION_DATE  = 
ORIGINATOR     = 

OBJECT_NAME    = UNKNOWN
OBJECT_ID      = 
CENTER_NAME    = EARTH
REF_FRAME      = TEME
TIME_SYSTEM    = UTC
MEAN_ELEMENT_THEORY = SGP/SGP4

EPOCH          = 2026-02-26T08:52:27.080832
MEAN_MOTION    = 14.00372056
ECCENTRICITY   = .0050489
INCLINATION    = 100.4247
RA_OF_ASC_NODE = 108.9334
ARG_OF_PERICENTER = 40.6958
MEAN_ANOMALY   = 24.1000

EPHEMERIS_TYPE = 0
CLASSIFICATION_TYPE = U
NORAD_CAT_ID   = 85373
ELEMENT_SET_NO = 999
REV_AT_EPOCH   = 62271
BSTAR          = .14327E-2
MEAN_MOTION_DOT = .209E-4
MEAN_MOTION_DDOT = 0

CCSDS_OMM_VERS = 2.0
CREATION_DATE  = 
ORIGINATOR     = 

OBJECT_NAME    = UNKNOWN
OBJECT_ID      = 
CENTER_NAME    = EARTH
REF_FRAME      = TEME
TIME_SYSTEM    = UTC
MEAN_ELEMENT_THEORY = SGP/SGP4

EPOCH          = 2026-02-02T17:05:00.983616
MEAN_MOTION    = 3.07857636
ECCENTRICITY   = .6775828
INCLINATION    = 51.2937
RA_OF_ASC_NODE = 156.4139
ARG_OF_PERICENTER = 239.1756
MEAN_ANOMALY   = 342.8295

EPHEMERIS_TYPE = 0
CLASSIFICATION_TYPE = U
NORAD_CAT_ID   = 85425
ELEMENT_SET_NO = 999
REV_AT_EPOCH   = 0
BSTAR          = 0
MEAN_MOTION_DOT = 0
MEAN_MOTION_DDOT = 0

CCSDS_OMM_VERS = 2.0
CREATION_DATE  = 
ORIGINATOR     = 

OBJECT_NAME    = UNKNOWN
OBJECT_ID      = 
CENTER_NAME    = EARTH
REF_FRAME      = TEME
TIME_SYSTEM    = UTC
MEAN_ELEMENT_THEORY = SGP/SGP4

EPOCH          = 2026-02-25T21:08:58.483680
MEAN_MOTION    = 13.52272530
ECCENTRICITY   = .0052349
INCLINATION    = 100.4829
RA_OF_ASC_NODE = 30.3380
ARG_OF_PERICENTER = 53.2293
MEAN_ANOMALY   = 335.9472

EPHEMERIS_TYPE = 0
CLASSIFICATION_TYPE = U
NORAD_CAT_ID   = 87014
ELEMENT_SET_NO = 999
REV_AT_EPOCH   = 60107
BSTAR          = .37233E-2
MEAN_MOTION_DOT = .2428E-4
MEAN_MOTION_DDOT = 0

CCSDS_OMM_VERS = 2.0
CREATION_DATE  = 
ORIGINATOR     = 

OBJECT_NAME    = UNKNOWN
OBJECT_ID      = 
CENTER_NAME    = EARTH
REF_FRAME      = TEME
TIME_SYSTEM    = UTC
MEAN_ELEMENT_THEORY = SGP/SGP4

EPOCH          = 2026-02-25T00:58:47.936640
MEAN_MOTION    = 14.04679370
ECCENTRICITY   = .0081636
INCLINATION    = 98.7453
RA_OF_ASC_NODE = 93.6492
ARG_OF_PERICENTER = 42.6311
MEAN_ANOMALY   = 318.1154

EPHEMERIS_TYPE = 0
CLASSIFICATION_TYPE = U
NORAD_CAT_ID   = 87029
ELEMENT_SET_NO = 999
REV_AT_EPOCH   = 60343
BSTAR          = .6063E-3
MEAN_MOTION_DOT = .958E-5
MEAN_MOTION_DDOT = 0

